0 IRIDIUM 33 DEB
1 33870U 97051AP  13283.06107528  .00001016  00000-0  37447-3 0  3360
2 33870 086.3809 131.9976 0023552 335.9998 141.0312 14.31488639243172
0 IRIDIUM 33 DEB
1 33870U 97051AP  13286.07662167  .00001016  00000-0  37427-3 0  3389
2 33870 086.3802 130.7377 0023266 325.6774 201.7705 14.31494302243609
0 IRIDIUM 33 DEB
1 33870U 97051AP  13287.52445126  .00001127  00000-0  41619-3 0  3396
2 33870 086.3800 130.1328 0023162 320.6330 103.3301 14.31497317243816
0 IRIDIUM 33 DEB
1 33870U 97051AP  13288.64373763  .00001510  00000-0  56014-3 0  3400
2 33870 086.3800 129.6651 0023097 316.6840 111.7678 14.31501821243979
0 IRIDIUM 33 DEB
1 33870U 97051AP  13290.05171814  .00001256  00000-0  46441-3 0  3412
2 33870 086.3800 129.0767 0022984 311.8182 167.9585 14.31505607244170
0 IRIDIUM 33 DEB
1 33870U 97051AP  13291.10055117  .00001242  00000-0  45917-3 0  3429
2 33870 086.3801 128.6385 0022928 308.1317 173.3175 14.31508288244320
0 IRIDIUM 33 DEB
1 33870U 97051AP  13292.48410321  .00001364  00000-0  50521-3 0  3436
2 33870 086.3803 128.0603 0022852 303.3007 103.6973 14.31511277244524
0 IRIDIUM 33 DEB
1 33870U 97051AP  13293.60547015  .00001501  00000-0  55657-3 0  3441
2 33870 086.3803 127.5916 0022806 299.3800 122.8784 14.31513814244688
0 IRIDIUM 33 DEB
1 33870U 97051AP  13295.02168345  .00001578  00000-0  58554-3 0  3458
2 33870 086.3803 126.9996 0022777 294.4031 221.6462 14.31517857244882
0 IRIDIUM 33 DEB
1 33870U 97051AP  13296.06399135  .00001596  00000-0  59227-3 0  3465
2 33870 086.3802 126.5641 0022764 290.7165 193.4456 14.31521576245037
